OSCAR 3 (OSCAR III)     
1 01293U 65016F   09170.50572732 -.00000027  00000-0  16490-4 0  5496
2 01293  70.0693 166.4034 0018386 173.5115 186.6237 14.04710379260136
OSCAR 5 (AO-5)          
1 04321U 70008B   09170.60547066 -.00000031  00000-0  10000-3 0  1751
2 04321 102.1318 181.7756 0027814 336.1536  23.8244 12.52156691801068
OSCAR 6 (AO-6)          
1 06236U 72082B   09169.91258007 -.00000027  00000-0  10000-3 0  1708
2 06236 101.3925 183.2215 0003631 250.7567 109.3113 12.53077561677620
OSCAR 7 (AO-7)          
1 07530U 74089B   09170.08389509 -.00000027  00000-0  10000-3 0  5071
2 07530 101.4259 194.6903 0011482 264.6987  95.2768 12.53575787582955
OSCAR 8 (AO-8)          
1 10703U 78026B   09170.20376417  .00000368  00000-0  28477-3 0  5232
2 10703  98.8298 215.3215 0006693 153.7540 206.3961 13.98844506596303
PHASE 3B (AO-10)        
1 14129U 83058B   09167.22038513  .00000406  00000-0  10000-3 0  6663
2 14129  25.8733 151.6765 6010884 231.3875  57.7236  2.05867155167636
UOSAT 2 (UO-11)         
1 14781U 84021B   09170.31076308  .00000261  00000-0  41913-4 0  9880
2 14781  98.1064 214.8181 0008553 336.7549  23.3275 14.79718102358147
JAS-1 (FO-12)           
1 16909U 86061B   09170.41299600 -.00000083  00000-0  10000-3 0  5716
2 16909  50.0136 155.0475 0011110 210.5005 149.5185 12.44453101 39253
UOSAT 3 (UO-14)         
1 20437U 90005B   09170.01520055 -.00000010  00000-0  11902-4 0  9501
2 20437  98.3414 128.1360 0010361 158.1891 201.9732 14.31545897 13311
UOSAT 4 (UO-15)         
1 20438U 90005C   09170.86158607 -.00000012  00000-0  11617-4 0  4437
2 20438  98.4000 122.0465 0009541 184.8239 175.2854 14.30445852 12858
PACSAT (AO-16)          
1 20439U 90005D   09169.95106866 -.00000003  00000-0  14431-4 0  6301
2 20439  98.2776 138.2719 0010920 160.6725 199.4883 14.31826419 13408
DOVE (DO-17)            
1 20440U 90005E   09169.95149058  .00000003  00000-0  16298-4 0  3458
2 20440  98.2531 142.9907 0011324 155.9984 204.1728 14.32130196 13541
WEBERSAT (WO-18)        
1 20441U 90005F   09169.95499297 -.00000002  00000-0  14374-4 0  8540
2 20441  98.2600 141.6574 0011740 159.9263 200.2395 14.31894607 13473
LUSAT (LO-19)           
1 20442U 90005G   09170.42697549  .00000002  00000-0  15917-4 0  5501
2 20442  98.2403 145.9808 0012372 156.5588 203.6166 14.32062098 13630
JAS-1B (FO-20)          
1 20480U 90013C   09170.44402415 -.00000000  00000-0  68492-4 0  1714
2 20480  99.0717  90.7213 0540741 165.2491 196.5121 12.83361354907197
INFORMATOR 1 & RS-14    
1 21087U 91006A   09169.99048779  .00000011  00000-0 -42616-5 0  3016
2 21087  82.9419  44.6918 0033725 280.3502  79.3847 13.75043934922667
COSMOS 2123 & RS-12/13  
1 21089U 91007A   09170.73719357  .00000038  00000-0  24555-4 0  1848
2 21089  82.9221 264.7395 0028505 325.4716  34.4591 13.74486559921549
UOSAT 5 (UO-22)         
1 21575U 91050B   09169.99059182 -.00000082  00000-0 -12142-4 0  5771
2 21575  98.4442 118.8796 0007706  21.9273 338.2229 14.39676123940966
KITSAT 1 (KO-23)        
1 22077U 92052B   09170.00640482 -.00000037  00000-0  10000-3 0  7754
2 22077  66.0861 322.8411 0015096 279.2376  80.6932 12.86448629791752
ARASENE (AO-24)         
1 22654U 93031B   09166.32453044 -.00000090  00000-0  10000-3 0  2720
2 22654   5.0681 337.5028 2869404 160.5617 213.1666  1.42205764 79099
EYESAT-1 (AO-27)        
1 22825U 93061C   09170.38580494  .00000026  00000-0  26770-4 0  2702
2 22825  98.4357 123.7395 0007507 255.5812 104.4544 14.29267832820224
ITAMSAT (IO-26)         
1 22826U 93061D   09170.37562119 -.00000007  00000-0  13676-4 0  9973
2 22826  98.4301 124.4777 0007993 252.7645 107.2667 14.29519680820327
KITSAT 2 (KO-25)        
1 22828U 93061F   09170.40943935 -.00000078  00000-0 -13996-4 0  2043
2 22828  98.4234 124.4161 0009310 223.3470 136.6978 14.29819181788600
POSAT (PO-28)           
1 22829U 93061G   09170.04278463 -.00000027  00000-0  58968-5 0  2403
2 22829  98.4196 125.1942 0008941 221.5847 138.4679 14.30217662820568
RADIO ROSTO (RS-15)     
1 23439U 94085A   09170.37441240 -.00000039  00000-0  10000-3 0  2090
2 23439  64.8154 261.2785 0148094  51.2963 310.1098 11.27553299596369
JAS-2 (FO-29)           
1 24278U 96046B   09169.70359490 -.00000002  00000-0  35075-4 0   707
2 24278  98.5540  43.5352 0350922 346.6246  12.5769 13.52944228633956
UNAMSAT-2 (MO-30)       
1 24305U 96052B   09169.99735356  .00000005  00000-0 -10747-4 0  1449
2 24305  82.9350 352.7007 0028493 249.1340 110.6767 13.73570710640929
TMSAT-1 (TO-31)         
1 25396U 98043C   09170.73926644  .00000065  00000-0  46386-4 0  4310
2 25396  98.3316 198.5787 0002082 206.4178 153.6896 14.23779474568669
TECHSAT 1B (GO-32)      
1 25397U 98043D   09170.60363733 -.00000014  00000-0  11790-4 0  9211
2 25397  98.3265 192.8148 0000283 214.8495 145.2677 14.23159907568473
SEDSAT 1 (SO-33)        
1 25509U 98061B   09170.64185476 -.00000118  00000-0 -34730-4 0  4788
2 25509  31.4345  38.5989 0354987 359.9148   0.1403 14.28251690556181
PAN SAT (PO-34)         
1 25520U 98064B   09169.57154027  .00000292  00000-0  46093-5 0  2732
2 25520  28.4607 245.5875 0005127 315.5486  44.4698 15.17347116588862
ISS (ZARYA)             
1 25544U 98067A   09170.79758185  .00013009  00000-0  94111-4 0   698
2 25544  51.6412 293.5008 0008737 128.5784  10.7348 15.73836960606360
SUNSAT (SO-35)          
1 25636U 99008C   09169.99517849  .00000012  00000-0  11354-4 0  3361
2 25636  96.4476 353.6172 0146912 215.7825 143.3465 14.43466052543362
UOSAT 12 (UO-36)        
1 25693U 99021A   09170.03112429 -.00000060  00000-0  10755-4 0  9400
2 25693  64.5562 110.1778 0005003 213.5641 146.5123 14.78751424548114
OPAL (OO-38)            
1 26063U 00004C   09169.47590131 -.00000029  00000-0  10554-4 0  5331
2 26063 100.2110 316.2633 0036498 257.9196 101.7885 14.35865774492136
SAUDISAT 1A (SO-41)     
1 26545U 00057A   09169.97484407 -.00000024  00000-0  16244-4 0  2791
2 26545  64.5569 112.0615 0057054 277.8934  81.5692 14.80590316471466
TIUNGSAT-1 (MO-46)      
1 26548U 00057D   09170.80752417 -.00000074  00000-0  96898-5 0  4215
2 26548  64.5561  72.6235 0052096 272.6225  86.8905 14.83369326472348
SAUDISAT 1B (SO-42)     
1 26549U 00057E   09170.41181306  .00000099  00000-0  32422-4 0  3583
2 26549  64.5557 127.3717 0060770 281.5814  77.8516 14.79446704471199
PHASE 3D (AO-40)        
1 26609U 00072B   09169.23786146 -.00000196  00000-0  10000-3 0  2426
2 26609   9.6012  14.2464 7962773 214.6929  48.8581  1.25586211 39634
PCSAT (NO-44)           
1 26931U 01043C   09170.73308921 -.00000187  00000-0 -40601-4 0  1961
2 26931  67.0527  57.7864 0005590 272.8743  87.1694 14.29558874402946
SAPPHIRE (NO-45)        
1 26932U 01043D   09170.83642551 -.00000060  00000-0  86919-5 0  2001
2 26932  67.0562  57.4776 0003873 264.5828  95.4831 14.29610499403004
IDEFIX & ARIANE 42P R/B 
1 27422U 02021B   09170.20223284  .00000018  00000-0  24268-4 0   718
2 27422  98.5220 249.4060 0011796 214.5754 145.4661 14.28496756369694
RUBIN-2 & SAFIR-M       
1 27605U 02058A   09170.04067942 -.00000092  00000-0  77818-5 0  9330
2 27605  64.5597   6.5383 0066868 206.0981 153.6734 14.72403934349218
SAUDISAT 1C (SO-50)     
1 27607U 02058C   09170.36282057  .00000058  00000-0  31013-4 0  9138
2 27607  64.5587  18.4830 0067139 205.1963 154.5869 14.71442549348997
DTUSAT                  
1 27842U 03031C   09170.00841784 -.00000006  00000-0  17561-4 0  5806
2 27842  98.7035 180.1189 0010007 114.3184 245.9035 14.20983043309605
CUTE-1 (CO-55)          
1 27844U 03031E   09170.03466135  .00000040  00000-0  38931-4 0  6031
2 27844  98.7119 179.1734 0010595 133.3640 226.8416 14.20642789309525
AAU CUBESAT             
1 27846U 03031G   09170.92341075  .00000025  00000-0  31567-4 0  5159
2 27846  98.7050 181.0151 0010121 112.4896 247.7365 14.20983552309736
CANX-1                  
1 27847U 03031H   09170.01662560 -.00000017  00000-0  12441-4 0  5292
2 27847  98.7049 180.1132 0010091 114.0732 246.1506 14.20965300309558
CUBESAT XI-IV (CO-57)   
1 27848U 03031J   09170.43509341 -.00000001  00000-0  20080-4 0  5512
2 27848  98.7134 178.6281 0010017 136.1425 224.0549 14.20443977309545
MOZHAYETS 4 (RS-22)     
1 27939U 03042A   09169.83965689  .00000061  00000-0  20647-4 0  8188
2 27939  97.9456  44.6494 0014559 124.7660 235.4916 14.63323598305814
ECHO (AO-51)            
1 28375U 04025K   09170.81220449  .00000007  00000-0  14585-4 0  4161
2 28375  98.0513 180.2621 0084489 116.5091 244.4795 14.40645145261333
HAMSAT (VO-52)          
1 28650U 05017B   09170.00800087  .00000159  00000-0  26684-4 0  2510
2 28650  97.7430 231.5297 0027831  26.0325 334.2287 14.81594497222918
UWE-1                   
1 28892U 05043C   09170.70967652 -.00000014  00000-0  67252-5 0  3650
2 28892  98.0552  60.7234 0017026 343.7983  16.2665 14.59743808194217
SSETI EXPRESS (XO-53)   
1 28894U 05043E   09170.26077772  .00000032  00000-0  16230-4 0  4905
2 28894  98.0569  60.5283 0017562 347.5493  12.5282 14.59672392194158
CUBESAT XI-V (CO-58)    
1 28895U 05043F   09169.36630131 -.00000016  00000-0  61337-5 0  3304
2 28895  98.0605  59.9501 0017701 348.5772  11.5028 14.59774773193906
NCUBE-2                 
1 28897U 05043H   09170.24656179  .00000104  00000-0  31242-4 0  8779
2 28897  98.0572  60.7155 0017298 346.7452  13.3284 14.59954491186321
CUTE-1.7+APD (CO-56)    
1 28941U 06005C   09170.68347727  .00059515  37987-5  19525-3 0  1795
2 28941  98.1355 345.5815 0083957 123.3996 237.5338 15.84988223187640
PEHUENSAT 1             
1 29712U 07001D   09170.71995256  .00000424  00000-0  61961-4 0  5803
2 29712  97.8283 227.0679 0012861 268.5221  91.4515 14.80576589131842
DELFI-C3                
1 32789U 08021G   09170.18486311  .00000193  00000-0  31210-4 0  3975
2 32789  97.9473 234.2141 0016517  28.9270 331.2855 14.81724198 61745
PRISM                   
1 33493U 09002B   09170.80223017  .00000214  00000-0  34886-4 0  4897
2 33493  98.0571 283.0223 0018933 231.6869 128.2646 14.80685568 21859
STARS                   
1 33498U 09002G   09170.85546537  .00000126  00000-0  28375-4 0  4520
2 33498  98.0387 280.5606 0012177 321.7870  38.2468 14.71316783 21709
KKS-1                   
1 33499U 09002H   09170.91747272  .00000061  00000-0  18107-4 0  4594
2 33499  98.0402 280.4991 0009376 319.7403  40.3106 14.70689032 21702
